{"type": "FeatureCollection", "features": [ {"type": "Feature", "properties": {"norad_id": 38552, "name": "METEOSAT-10 (MSG-3)", "group": "weather", "lat": 4.052589926248141, "lon": 168.2680218672793, "alt_km": 35787.44126840676, "timestamp": "2025-12-12T05:47:28.414475+00:00", "meta": {"OBJECT_NAME": "METEOSAT-10 (MSG-3)", "OBJECT_ID": "2012-035B", "EPOCH": "2025-12-11T20:21:35.712000", "MEAN_MOTION": 1.00274739, "ECCENTRICITY": 8.094e-05, "INCLINATION": 4.2271, "RA_OF_ASC_NODE": 61.7269, "ARG_OF_PERICENTER": 249.9337, "MEAN_ANOMALY": 74.7093, "EPHEMERIS_TYPE": 0, "CLASSIFICATION_TYPE": "U", "NORAD_CAT_ID": 38552, "ELEMENT_SET_NO": 999, "REV_AT_EPOCH": 4897, "BSTAR": 0, "MEAN_MOTION_DOT": 2e-08, "MEAN_MOTION_DDOT": 0}, "tle": {"line1": "1 38552U 12035B   25345.84833000  .00000002  00000+0  00000+0 0  9999", "line2": "2 38552   4.2271  61.7269 0000809 249.9337  74.7093  1.00274739 48977"}}, "geometry": {"type": "Point", "coordinates": [168.2680218672793, 4.052589926248141]}}, {"type": "Feature", "properties": {"norad_id": 38771, "name": "METOP-B", "group": "weather", "lat": 57.54864939373054, "lon": 22.307800213011152, "alt_km": 814.8919541106507, "timestamp": "2025-12-12T05:47:28.414486+00:00", "meta": {"OBJECT_NAME": "METOP-B", "OBJECT_ID": "2012-049A", "EPOCH": "2025-12-11T22:45:31.396320", "MEAN_MOTION": 14.2140787, "ECCENTRICITY": 0.00028775, "INCLINATION": 98.6801, "RA_OF_ASC_NODE": 35.9205, "ARG_OF_PERICENTER": 145.8562, "MEAN_ANOMALY": 214.2801, "EPHEMERIS_TYPE": 0, "CLASSIFICATION_TYPE": "U", "NORAD_CAT_ID": 38771, "ELEMENT_SET_NO": 999, "REV_AT_EPOCH": 68666, "BSTAR": 0.00011678016, "MEAN_MOTION_DOT": 2.12e-06, "MEAN_MOTION_DDOT": 0}, "tle": {"line1": "1 38771U 12049A   25345.94828005  .00000212  00000+0  11678-3 0  9997", "line2": "2 38771  98.6801  35.9205 0002877 145.8562 214.2801 14.21407870686663"}}, "geometry": {"type": "Point", "coordinates": [22.307800213011152, 57.54864939373054]}}, {"type": "Feature", "properties": {"norad_id": 39216, "name": "INSAT-3D", "group": "weather", "lat": -0.7904181070956324, "lon": -62.40281704410795, "alt_km": 35782.43613241349, "timestamp": "2025-12-12T05:47:28.414520+00:00", "meta": {"OBJECT_NAME": "INSAT-3D", "OBJECT_ID": "2013-038B", "EPOCH": "2025-12-11T19:15:49.511232", "MEAN_MOTION": 1.00270347, "ECCENTRICITY": 0.00015039, "INCLINATION": 1.4427, "RA_OF_ASC_NODE": 85.0027, "ARG_OF_PERICENTER": 164.0419, "MEAN_ANOMALY": 250.209, "EPHEMERIS_TYPE": 0, "CLASSIFICATION_TYPE": "U", "NORAD_CAT_ID": 39216, "ELEMENT_SET_NO": 999, "REV_AT_EPOCH": 4520, "BSTAR": 0, "MEAN_MOTION_DOT": -3.31e-06, "MEAN_MOTION_DDOT": 0}, "tle": {"line1": "1 39216U 13038B   25345.80265638 -.00000331  00000+0  00000+0 0  9999", "line2": "2 39216   1.4427  85.0027 0001503 164.0419 250.2090  1.00270347 45200"}}, "geometry": {"type": "Point", "coordinates": [-62.40281704410795, -0.7904181070956324]}}, {"type": "Feature", "properties": {"norad_id": 39260, "name": "FENGYUN 3C", "group": "weather", "lat": -43.39595660678653, "lon": -27.949453739262303, "alt_km": 851.473821382132, "timestamp": "2025-12-12T05:47:28.414532+00:00", "meta": {"OBJECT_NAME": "FENGYUN 3C", "OBJECT_ID": "2013-052A", "EPOCH": "2025-12-12T00:54:37.393056", "MEAN_MOTION": 14.15695925, "ECCENTRICITY": 0.00142501, "INCLINATION": 98.4762, "RA_OF_ASC_NODE": 323.7516, "ARG_OF_PERICENTER": 198.1082, "MEAN_ANOMALY": 161.9587, "EPHEMERIS_TYPE": 0, "CLASSIFICATION_TYPE": "U", "NORAD_CAT_ID": 39260, "ELEMENT_SET_NO": 999, "REV_AT_EPOCH": 63208, "BSTAR": 0.00011328804, "MEAN_MOTION_DOT": 1.81e-06, "MEAN_MOTION_DDOT": 0}, "tle": {"line1": "1 39260U 13052A   25346.03793279  .00000181  00000+0  11329-3 0  9999", "line2": "2 39260  98.4762 323.7516 0014250 198.1082 161.9587 14.15695925632089"}}, "geometry": {"type": "Point", "coordinates": [-27.949453739262303, -43.39595660678653]}}, {"type": "Feature", "properties": {"norad_id": 40069, "name": "METEOR-M 2", "group": "weather", "lat": -70.9547716308853, "lon": -10.515911272942272, "alt_km": 827.049347243621, "timestamp": "2025-12-12T05:47:28.414544+00:00", "meta": {"OBJECT_NAME": "METEOR-M 2", "OBJECT_ID": "2014-037A", "EPOCH": "2025-12-12T01:03:55.575072", "MEAN_MOTION": 14.21386635, "ECCENTRICITY": 0.00049664, "INCLINATION": 98.4904, "RA_OF_ASC_NODE": 323.6553, "ARG_OF_PERICENTER": 212.0459, "MEAN_ANOMALY": 148.0417, "EPHEMERIS_TYPE": 0, "CLASSIFICATION_TYPE": "U", "NORAD_CAT_ID": 40069, "ELEMENT_SET_NO": 999, "REV_AT_EPOCH": 59273, "BSTAR": 0.00019601142, "MEAN_MOTION_DOT": 3.86e-06, "MEAN_MOTION_DDOT": 0}, "tle": {"line1": "1 40069U 14037A   25346.04439323  .00000386  00000+0  19601-3 0  9998", "line2": "2 40069  98.4904 323.6553 0004966 212.0459 148.0417 14.21386635592730"}}, "geometry": {"type": "Point", "coordinates": [-10.515911272942272, -70.9547716308853]}}, {"type": "Feature", "properties": {"norad_id": 40267, "name": "HIMAWARI-8", "group": "weather", "lat": 0.015201934886733796, "lon": -51.29481953138308, "alt_km": 35781.485525386066, "timestamp": "2025-12-12T05:47:28.414556+00:00", "meta": {"OBJECT_NAME": "HIMAWARI-8", "OBJECT_ID": "2014-060A", "EPOCH": "2025-12-11T21:01:39.374688", "MEAN_MOTION": 1.00270133, "ECCENTRICITY": 0.00012149, "INCLINATION": 0.0351, "RA_OF_ASC_NODE": 192.2334, "ARG_OF_PERICENTER": 111.8054, "MEAN_ANOMALY": 232.8585, "EPHEMERIS_TYPE": 0, "CLASSIFICATION_TYPE": "U", "NORAD_CAT_ID": 40267, "ELEMENT_SET_NO": 999, "REV_AT_EPOCH": 4088, "BSTAR": 0, "MEAN_MOTION_DOT": -2.67e-06, "MEAN_MOTION_DDOT": 0}, "tle": {"line1": "1 40267U 14060A   25345.87615017 -.00000267  00000+0  00000+0 0  9998", "line2": "2 40267   0.0351 192.2334 0001214 111.8054 232.8585  1.00270133 40882"}}, "geometry": {"type": "Point", "coordinates": [-51.29481953138308, 0.015201934886733796]}}, {"type": "Feature", "properties": {"norad_id": 40367, "name": "FENGYUN 2G", "group": "weather", "lat": -1.1346924669758107, "lon": -92.45021580123651, "alt_km": 35775.16682305894, "timestamp": "2025-12-12T05:47:28.414568+00:00", "meta": {"OBJECT_NAME": "FENGYUN 2G", "OBJECT_ID": "2014-090A", "EPOCH": "2025-12-11T19:07:12.834912", "MEAN_MOTION": 1.00264403, "ECCENTRICITY": 0.00031275, "INCLINATION": 5.1663, "RA_OF_ASC_NODE": 75.1088, "ARG_OF_PERICENTER": 196.7827, "MEAN_ANOMALY": 195.2176, "EPHEMERIS_TYPE": 0, "CLASSIFICATION_TYPE": "U", "NORAD_CAT_ID": 40367, "ELEMENT_SET_NO": 999, "REV_AT_EPOCH": 4012, "BSTAR": 0, "MEAN_MOTION_DOT": -2.93e-06, "MEAN_MOTION_DDOT": 0}, "tle": {"line1": "1 40367U 14090A   25345.79667633 -.00000293  00000+0  00000+0 0  9993", "line2": "2 40367   5.1663  75.1088 0003127 196.7827 195.2176  1.00264403 40123"}}, "geometry": {"type": "Point", "coordinates": [-92.45021580123651, -1.1346924669758107]}}, {"type": "Feature", "properties": {"norad_id": 40732, "name": "METEOSAT-11 (MSG-4)", "group": "weather", "lat": 2.6316061337197936, "lon": 177.3692049775649, "alt_km": 35783.31205065835, "timestamp": "2025-12-12T05:47:28.414580+00:00", "meta": {"OBJECT_NAME": "METEOSAT-11 (MSG-4)", "OBJECT_ID": "2015-034A", "EPOCH": "2025-12-11T22:06:55.623168", "MEAN_MOTION": 1.00267235, "ECCENTRICITY": 9.338e-05, "INCLINATION": 2.7334, "RA_OF_ASC_NODE": 72.0037, "ARG_OF_PERICENTER": 125.564, "MEAN_ANOMALY": 224.3435, "EPHEMERIS_TYPE": 0, "CLASSIFICATION_TYPE": "U", "NORAD_CAT_ID": 40732, "ELEMENT_SET_NO": 999, "REV_AT_EPOCH": 533, "BSTAR": 0, "MEAN_MOTION_DOT": 7e-07, "MEAN_MOTION_DDOT": 0}, "tle": {"line1": "1 40732U 15034A   25345.92147712  .00000070  00000+0  00000+0 0  9996", "line2": "2 40732   2.7334  72.0037 0000933 125.5640 224.3435  1.00267235  5334"}}, "geometry": {"type": "Point", "coordinates": [177.3692049775649, 2.6316061337197936]}}, {"type": "Feature", "properties": {"norad_id": 41105, "name": "ELEKTRO-L 2", "group": "weather", "lat": 6.147743078071637, "lon": 153.46834774297142, "alt_km": 35793.60991644696, "timestamp": "2025-12-12T05:47:28.414593+00:00", "meta": {"OBJECT_NAME": "ELEKTRO-L 2", "OBJECT_ID": "2015-074A", "EPOCH": "2025-12-11T23:42:55.963008", "MEAN_MOTION": 1.00272244, "ECCENTRICITY": 0.00039115, "INCLINATION": 6.2242, "RA_OF_ASC_NODE": 72.8364, "ARG_OF_PERICENTER": 201.51, "MEAN_ANOMALY": 147.828, "EPHEMERIS_TYPE": 0, "CLASSIFICATION_TYPE": "U", "NORAD_CAT_ID": 41105, "ELEMENT_SET_NO": 999, "REV_AT_EPOCH": 3662, "BSTAR": 0, "MEAN_MOTION_DOT": -1.09e-06, "MEAN_MOTION_DDOT": 0}, "tle": {"line1": "1 41105U 15074A   25345.98814772 -.00000109  00000+0  00000+0 0  9992", "line2": "2 41105   6.2242  72.8364 0003911 201.5100 147.8280  1.00272244 36621"}}, "geometry": {"type": "Point", "coordinates": [153.46834774297142, 6.147743078071637]}}, {"type": "Feature", "properties": {"norad_id": 41752, "name": "INSAT-3DR", "group": "weather", "lat": 0.017369755969118945, "lon": -118.02801481735011, "alt_km": 35732.87563755166, "timestamp": "2025-12-12T05:47:28.414605+00:00", "meta": {"OBJECT_NAME": "INSAT-3DR", "OBJECT_ID": "2016-054A", "EPOCH": "2025-12-11T22:25:23.854368", "MEAN_MOTION": 1.00270772, "ECCENTRICITY": 0.00143964, "INCLINATION": 0.0899, "RA_OF_ASC_NODE": 86.6387, "ARG_OF_PERICENTER": 184.0556, "MEAN_ANOMALY": 220.5416, "EPHEMERIS_TYPE": 0, "CLASSIFICATION_TYPE": "U", "NORAD_CAT_ID": 41752, "ELEMENT_SET_NO": 999, "REV_AT_EPOCH": 3394, "BSTAR": 0, "MEAN_MOTION_DOT": -6.8e-07, "MEAN_MOTION_DDOT": 0}, "tle": {"line1": "1 41752U 16054A   25345.93430387 -.00000068  00000+0  00000+0 0  9994", "line2": "2 41752   0.0899  86.6387 0014396 184.0556 220.5416  1.00270772 33942"}}, "geometry": {"type": "Point", "coordinates": [-118.02801481735011, 0.017369755969118945]}}]}